KUIPER-00125            
1 65954U 25228H   26026.25002315  .00048925  00000+0  42668-2 0  9997
2 65954  51.8942 168.9841 0002692 156.2018 241.8934 14.96373083  5199
KUIPER-00126            
1 65955U 25228J   26026.18525844  .00005180  00000+0  70787-3 0  9997
2 65955  51.8967 188.5627 0000419 100.8130 259.2880 14.79933956 16931
KUIPER-00127            
1 65956U 25228K   26026.16119258  .00010246  00000+0  87278-3 0  9996
2 65956  51.8936 181.6140 0005086 210.3887 149.6789 14.98271374 17035
KUIPER-00128            
1 65957U 25228L   26026.15958486  .00006853  00000+0  92562-3 0  9991
2 65957  51.8996 181.1846 0000802  73.8166 286.2885 14.79995922 17039
KUIPER-00129            
1 65958U 25228M   26026.25002315  .00037725  00000+0  49573-2 0  9999
2 65958  51.8987 175.7700 0001806 125.1810 147.7188 14.79869284  5866
KUIPER-00130            
1 65959U 25228N   26025.14928792  .00001786  00000+0  26305-3 0  9990
2 65959  51.8974 183.1331 0001046  77.5326 282.5753 14.79957433  7215
KUIPER-00134            
1 65960U 25228P   26026.08551645  .00068011  00000+0  18372-2 0  9993
2 65960  51.8723 166.5189 0006605 163.6359 196.4842 15.37098426 17232
KUIPER-00135            
1 65961U 25228Q   26026.12851967  .00005663  00000+0  77024-3 0  9993
2 65961  51.8992 178.8688 0000752 113.1313 246.9729 14.79986295 17069
